{
	"type" : "FeatureCollection",
	"name" : "DENGUE_CLUSTER",
	"features" : [
		{
			"type" : "Feature",
			"geometry" : {
				"type" : "Polygon",
				"coordinates" : [
					[
						[ 103.86539299356741, 1.3861890368479488 ],
						[ 103.86514402608236, 1.3862688349772982 ],
						[ 103.8649729369468, 1.386525126812921 ],
						[ 103.8646510448622, 1.3862878250951851 ],
						[ 103.86429536634556, 1.3868093304138387 ],
						[ 103.86434126571534, 1.3868843160566715 ],
						[ 103.8633706684239, 1.3871893652132836 ],
						[ 103.86326303968943, 1.387125210096849 ],
						[ 103.86300375700326, 1.3866786565091047 ],
						[ 103.86275686796215, 1.3868452027694966 ],
						[ 103.86251113898689, 1.3865012047409624 ],
						[ 103.86220438230185, 1.3862257211495765 ],
						[ 103.86214918718196, 1.3859973337293796 ],
						[ 103.8614943377864, 1.3859018760817627 ],
						[ 103.86170438203858, 1.3841094791583886 ],
						[ 103.86176718943416, 1.3837788627943175 ],
						[ 103.86196674646243, 1.3832949758617903 ],
						[ 103.86244982824306, 1.3825262758612225 ],
						[ 103.86296560393866, 1.3820138820797885 ],
						[ 103.8627480660389, 1.3814920305539087 ],
						[ 103.86241759869161, 1.3806492206780931 ],
						[ 103.86418048584908, 1.379907453374716 ],
						[ 103.86468474413286, 1.3795049495609872 ],
						[ 103.86481712142148, 1.3794585412639797 ],
						[ 103.86481331729117, 1.3795597260893109 ],
						[ 103.8650925227881, 1.3809616069419013 ],
						[ 103.86630941545121, 1.380838725176197 ],
						[ 103.86635363209275, 1.3812652063664077 ],
						[ 103.86639641190818, 1.381365027662826 ],
						[ 103.86653670143829, 1.3815938478853858 ],
						[ 103.86666555998227, 1.381934043404766 ],
						[ 103.86657644014458, 1.382056563380046 ],
						[ 103.86685574519842, 1.382259874935276 ],
						[ 103.86712073480969, 1.38371324655202 ],
						[ 103.86771881436917, 1.3836129475524142 ],
						[ 103.8678098267076, 1.3842444599976798 ],
						[ 103.86800192189261, 1.3855081313358888 ],
						[ 103.86628800808076, 1.385807869418804 ],
						[ 103.86632002742412, 1.386030003381243 ],
						[ 103.86539299356741, 1.3861890368479488 ]
					]
				]
			},
			"properties" : {
				"OBJECTID" : 513921,
				"LOCALITY" : "Mimosa Cres / Nim Dr, Green, Rd / Saraca Rd / Stratton Dr",
				"CASE_SIZE" : 12,
				"NAME" : "Dengue_Cluster",
				"HYPERLINK" : "https://www.nea.gov.sg/dengue-zika/dengue/dengue-clusters",
				"HOMES" : null,
				"PUBLIC_PLACES" : null,
				"CONSTRUCTION_SITES" : null,
				"INC_CRC" : "704B0FD2206CEBCB",
				"FMEL_UPD_D" : "20260512152240",
				"SHAPE.AREA" : 372226.834983295,
				"SHAPE.LEN" : 2791.28090739859
			}
		},
		{
			"type" : "Feature",
			"geometry" : {
				"type" : "Polygon",
				"coordinates" : [
					[
						[ 103.94843206033556, 1.3427414062841372 ],
						[ 103.9492962410912, 1.3415813817444135 ],
						[ 103.94937766841733, 1.3416574844970106 ],
						[ 103.94947181228972, 1.3416985823790124 ],
						[ 103.94956094602281, 1.3417062217925007 ],
						[ 103.94964625920032, 1.3416782086977204 ],
						[ 103.9509710061115, 1.34007842069365 ],
						[ 103.95228015363394, 1.3411687153439689 ],
						[ 103.95315063817107, 1.3419146387476886 ],
						[ 103.95187896007975, 1.3434440640725622 ],
						[ 103.9525646648405, 1.3440237738964065 ],
						[ 103.95150819461297, 1.3453050658231134 ],
						[ 103.9493017431863, 1.3434169482235188 ],
						[ 103.94843206033556, 1.3427414062841372 ]
					]
				]
			},
			"properties" : {
				"OBJECTID" : 513922,
				"LOCALITY" : "Simei St 1 (Blk 112, 113)",
				"CASE_SIZE" : 3,
				"NAME" : "Dengue_Cluster",
				"HYPERLINK" : "https://www.nea.gov.sg/dengue-zika/dengue/dengue-clusters",
				"HOMES" : null,
				"PUBLIC_PLACES" : null,
				"CONSTRUCTION_SITES" : null,
				"INC_CRC" : "83D950861E644241",
				"FMEL_UPD_D" : "20260512152240",
				"SHAPE.AREA" : 151353.221411225,
				"SHAPE.LEN" : 1699.53232976438
			}
		},
		{
			"type" : "Feature",
			"geometry" : {
				"type" : "Polygon",
				"coordinates" : [
					[
						[ 103.93806203290546, 1.3574522453706939 ],
						[ 103.93806033442507, 1.3558176846237868 ],
						[ 103.94007032265607, 1.3558024382683274 ],
						[ 103.94015136908389, 1.355854492508072 ],
						[ 103.94020806836949, 1.355914175222437 ],
						[ 103.94028619315426, 1.356038571376512 ],
						[ 103.94033323524108, 1.3563564410534845 ],
						[ 103.94037483027789, 1.3564704974390467 ],
						[ 103.94043005575078, 1.356566765304553 ],
						[ 103.9405773368596, 1.3567345985269947 ],
						[ 103.94099133102422, 1.3571345082379656 ],
						[ 103.94006360661861, 1.358074126491704 ],
						[ 103.9396297856101, 1.3576127117868706 ],
						[ 103.93941284047405, 1.3574828295511772 ],
						[ 103.93921064430452, 1.357433555216166 ],
						[ 103.93806203290546, 1.3574522453706939 ]
					]
				]
			},
			"properties" : {
				"OBJECTID" : 513923,
				"LOCALITY" : "Tampines Ctrl 7 (Blk 518B) / Tampines Ctrl 8 (Blk 520A)",
				"CASE_SIZE" : 2,
				"NAME" : "Dengue_Cluster",
				"HYPERLINK" : "https://www.nea.gov.sg/dengue-zika/dengue/dengue-clusters",
				"HOMES" : null,
				"PUBLIC_PLACES" : null,
				"CONSTRUCTION_SITES" : null,
				"INC_CRC" : "598157C92AC622B4",
				"FMEL_UPD_D" : "20260512152240",
				"SHAPE.AREA" : 54678.5016771,
				"SHAPE.LEN" : 986.227347286638
			}
		},
		{
			"type" : "Feature",
			"geometry" : {
				"type" : "Polygon",
				"coordinates" : [
					[
						[ 103.95325495313091, 1.3735441310802523 ],
						[ 103.95330921857457, 1.3734163356208318 ],
						[ 103.95335041471898, 1.3733506388558805 ],
						[ 103.95380638965743, 1.372296323822251 ],
						[ 103.95412630720647, 1.371542396849396 ],
						[ 103.954231925554, 1.3709085619636836 ],
						[ 103.95540071549551, 1.3709445293699465 ],
						[ 103.95540057601124, 1.3714726262651555 ],
						[ 103.95690058207634, 1.371504593979817 ],
						[ 103.95647524831703, 1.3726689298794381 ],
						[ 103.9562829139411, 1.3733177120754034 ],
						[ 103.95618418156822, 1.3741046741502467 ],
						[ 103.95384617845143, 1.3737347633236634 ],
						[ 103.95325495313091, 1.3735441310802523 ]
					]
				]
			},
			"properties" : {
				"OBJECTID" : 513924,
				"LOCALITY" : "Pasir Ris Dr 6 (Blk 411)",
				"CASE_SIZE" : 3,
				"NAME" : "Dengue_Cluster",
				"HYPERLINK" : "https://www.nea.gov.sg/dengue-zika/dengue/dengue-clusters",
				"HOMES" : null,
				"PUBLIC_PLACES" : null,
				"CONSTRUCTION_SITES" : null,
				"INC_CRC" : "DEE835F050B66BF1",
				"FMEL_UPD_D" : "20260506154748",
				"SHAPE.AREA" : 91934.69786423,
				"SHAPE.LEN" : 1300.54001666592
			}
		}
	]
}